ONEWEB-0350             
1 49214U 21083AE  24320.62720321 -.00000377  00000+0 -10663-2 0  9994
2 49214  87.8923  75.2997 0001389 108.5709 251.5571 13.13475465154981
ONEWEB-0351             
1 49215U 21083AF  24320.47731151  .00000146  00000+0  32663-3 0  9998
2 49215  87.9285  29.5678 0001792  72.0309 288.1020 13.20771221160384
ONEWEB-0352             
1 49216U 21083AG  24320.60815439  .00000215  00000+0  55273-3 0  9995
2 49216  87.8921  75.3387 0001431  86.3028 273.8265 13.13471097155075
ONEWEB-0354             
1 49217U 21083AH  24320.42695615  .00000147  00000+0  33080-3 0  9994
2 49217  87.9289  29.5683 0001573 107.2682 252.8623 13.20773608160410
ONEWEB-0355             
1 49218U 21083AJ  24320.56212452  .00000187  00000+0  47609-3 0  9990
2 49218  87.8926  75.3469 0001431  98.1392 261.9900 13.13473256154946
ONEWEB-0357             
1 49219U 21083AK  24320.19650937  .00000047  00000+0  82962-4 0  9991
2 49219  87.9286  29.6273 0001691  95.3829 264.7497 13.20773597161684
ONEWEB-0332             
1 49279U 21090A   24320.49511938 -.00000116  00000+0 -34830-3 0  9994
2 49279  87.9033  44.7966 0002007  93.5130 266.6229 13.14505600151554
ONEWEB-0347             
1 49280U 21090B   24320.49006796  .00000067  00000+0  13383-3 0  9990
2 49280  87.9289  29.5718 0002248  94.8928 265.2462 13.20769476154659
